{"type": "FeatureCollection", "features": [ {"type": "Feature", "properties": {"norad_id": 44542, "name": "BEIDOU-3 M24 (C46)", "group": "gnss", "lat": -32.995548318049, "lon": 160.8309517468414, "alt_km": 21522.43081795251, "timestamp": "2025-12-26T06:43:29.754657+00:00", "meta": {"OBJECT_NAME": "BEIDOU-3 M24 (C46)", "OBJECT_ID": "2019-061A", "EPOCH": "2025-12-24T17:34:06.027744", "MEAN_MOTION": 1.86229347, "ECCENTRICITY": 0.00095746, "INCLINATION": 54.4007, "RA_OF_ASC_NODE": 188.6113, "ARG_OF_PERICENTER": 26.2213, "MEAN_ANOMALY": 333.8628, "EPHEMERIS_TYPE": 0, "CLASSIFICATION_TYPE": "U", "NORAD_CAT_ID": 44542, "ELEMENT_SET_NO": 999, "REV_AT_EPOCH": 4254, "BSTAR": 0, "MEAN_MOTION_DOT": 1.06e-06, "MEAN_MOTION_DDOT": 0}, "tle": {"line1": "1 44542U 19061A   25358.73201421  .00000106  00000+0  00000+0 0  9994", "line2": "2 44542  54.4007 188.6113 0009574  26.2213 333.8628  1.86229347 42540"}}, "geometry": {"type": "Point", "coordinates": [160.8309517468414, -32.995548318049]}}, {"type": "Feature", "properties": {"norad_id": 44543, "name": "BEIDOU-3 M23 (C45)", "group": "gnss", "lat": -38.98802427378665, "lon": 43.98759433085455, "alt_km": 21548.2939161536, "timestamp": "2025-12-26T06:43:29.754671+00:00", "meta": {"OBJECT_NAME": "BEIDOU-3 M23 (C45)", "OBJECT_ID": "2019-061B", "EPOCH": "2025-12-25T03:38:38.812704", "MEAN_MOTION": 1.86227443, "ECCENTRICITY": 0.00060137, "INCLINATION": 54.3997, "RA_OF_ASC_NODE": 188.5655, "ARG_OF_PERICENTER": 25.8754, "MEAN_ANOMALY": 168.3625, "EPHEMERIS_TYPE": 0, "CLASSIFICATION_TYPE": "U", "NORAD_CAT_ID": 44543, "ELEMENT_SET_NO": 999, "REV_AT_EPOCH": 4255, "BSTAR": 0, "MEAN_MOTION_DOT": 1.1e-06, "MEAN_MOTION_DDOT": 0}, "tle": {"line1": "1 44543U 19061B   25359.15183811  .00000110  00000+0  00000+0 0  9999", "line2": "2 44543  54.3997 188.5655 0006013  25.8754 168.3625  1.86227443 42552"}}, "geometry": {"type": "Point", "coordinates": [43.98759433085455, -38.98802427378665]}}, {"type": "Feature", "properties": {"norad_id": 44624, "name": "EUTELSAT 5 WEST B (EGNOS/PRN 121)", "group": "gnss", "lat": -0.02797309504422405, "lon": -169.14142250641572, "alt_km": 35784.45712660226, "timestamp": "2025-12-26T06:43:29.754683+00:00", "meta": {"OBJECT_NAME": "EUTELSAT 5 WEST B (EGNOS/PRN 121)", "OBJECT_ID": "2019-067A", "EPOCH": "2025-12-25T18:10:42.799584", "MEAN_MOTION": 1.00271274, "ECCENTRICITY": 0.00031839, "INCLINATION": 0.0627, "RA_OF_ASC_NODE": 345.6151, "ARG_OF_PERICENTER": 287.7229, "MEAN_ANOMALY": 88.854, "EPHEMERIS_TYPE": 0, "CLASSIFICATION_TYPE": "U", "NORAD_CAT_ID": 44624, "ELEMENT_SET_NO": 999, "REV_AT_EPOCH": 2269, "BSTAR": 0, "MEAN_MOTION_DOT": -2.1e-07, "MEAN_MOTION_DDOT": 0}, "tle": {"line1": "1 44624U 19067A   25359.75743981 -.00000021  00000+0  00000+0 0  9993", "line2": "2 44624   0.0627 345.6151 0003183 287.7229  88.8540  1.00271274 22690"}}, "geometry": {"type": "Point", "coordinates": [-169.14142250641572, -0.02797309504422405]}}, {"type": "Feature", "properties": {"norad_id": 44793, "name": "BEIDOU-3 M22 (C44)", "group": "gnss", "lat": 47.423315018032994, "lon": -2.1384884252369494, "alt_km": 21509.493361118766, "timestamp": "2025-12-26T06:43:29.754694+00:00", "meta": {"OBJECT_NAME": "BEIDOU-3 M22 (C44)", "OBJECT_ID": "2019-078A", "EPOCH": "2025-12-22T23:04:03.320256", "MEAN_MOTION": 1.86232206, "ECCENTRICITY": 0.00060944, "INCLINATION": 54.0989, "RA_OF_ASC_NODE": 306.0279, "ARG_OF_PERICENTER": 24.0205, "MEAN_ANOMALY": 336.0117, "EPHEMERIS_TYPE": 0, "CLASSIFICATION_TYPE": "U", "NORAD_CAT_ID": 44793, "ELEMENT_SET_NO": 999, "REV_AT_EPOCH": 4136, "BSTAR": 0, "MEAN_MOTION_DOT": -5.4e-07, "MEAN_MOTION_DDOT": 0}, "tle": {"line1": "1 44793U 19078A   25356.96114954 -.00000054  00000+0  00000+0 0  9990", "line2": "2 44793  54.0989 306.0279 0006094  24.0205 336.0117  1.86232206 41368"}}, "geometry": {"type": "Point", "coordinates": [-2.1384884252369494, 47.423315018032994]}}, {"type": "Feature", "properties": {"norad_id": 44794, "name": "BEIDOU-3 M21 (C43)", "group": "gnss", "lat": -21.76877041621152, "lon": -70.95403493302368, "alt_km": 21522.061627853756, "timestamp": "2025-12-26T06:43:29.754705+00:00", "meta": {"OBJECT_NAME": "BEIDOU-3 M21 (C43)", "OBJECT_ID": "2019-078B", "EPOCH": "2025-12-25T05:55:32.884896", "MEAN_MOTION": 1.86227898, "ECCENTRICITY": 0.0004304, "INCLINATION": 54.0703, "RA_OF_ASC_NODE": 305.9129, "ARG_OF_PERICENTER": 12.6939, "MEAN_ANOMALY": 347.3266, "EPHEMERIS_TYPE": 0, "CLASSIFICATION_TYPE": "U", "NORAD_CAT_ID": 44794, "ELEMENT_SET_NO": 999, "REV_AT_EPOCH": 4141, "BSTAR": 0, "MEAN_MOTION_DOT": -5.3e-07, "MEAN_MOTION_DDOT": 0}, "tle": {"line1": "1 44794U 19078B   25359.24690839 -.00000053  00000+0  00000+0 0  9995", "line2": "2 44794  54.0703 305.9129 0004304  12.6939 347.3266  1.86227898 41411"}}, "geometry": {"type": "Point", "coordinates": [-70.95403493302368, -21.76877041621152]}}, {"type": "Feature", "properties": {"norad_id": 44850, "name": "COSMOS 2544 (759)", "group": "gnss", "lat": -41.49499846087259, "lon": 55.7254172551123, "alt_km": 19118.362176680246, "timestamp": "2025-12-26T06:43:29.754716+00:00", "meta": {"OBJECT_NAME": "COSMOS 2544 (759)", "OBJECT_ID": "2019-088A", "EPOCH": "2025-12-23T01:21:04.162752", "MEAN_MOTION": 2.13102153, "ECCENTRICITY": 0.0014323, "INCLINATION": 65.465, "RA_OF_ASC_NODE": 79.6136, "ARG_OF_PERICENTER": 250.3939, "MEAN_ANOMALY": 109.4967, "EPHEMERIS_TYPE": 0, "CLASSIFICATION_TYPE": "U", "NORAD_CAT_ID": 44850, "ELEMENT_SET_NO": 999, "REV_AT_EPOCH": 4696, "BSTAR": 0, "MEAN_MOTION_DOT": 1e-08, "MEAN_MOTION_DDOT": 0}, "tle": {"line1": "1 44850U 19088A   25357.05629818  .00000001  00000+0  00000+0 0  9997", "line2": "2 44850  65.4650  79.6136 0014323 250.3939 109.4967  2.13102153 46964"}}, "geometry": {"type": "Point", "coordinates": [55.7254172551123, -41.49499846087259]}}, {"type": "Feature", "properties": {"norad_id": 44864, "name": "BEIDOU-3 M19 (C41)", "group": "gnss", "lat": 9.582661109003832, "lon": -117.90667080915284, "alt_km": 21550.034452223517, "timestamp": "2025-12-26T06:43:29.754728+00:00", "meta": {"OBJECT_NAME": "BEIDOU-3 M19 (C41)", "OBJECT_ID": "2019-090A", "EPOCH": "2025-12-24T13:05:33.212256", "MEAN_MOTION": 1.86231537, "ECCENTRICITY": 0.00184016, "INCLINATION": 56.4026, "RA_OF_ASC_NODE": 68.5704, "ARG_OF_PERICENTER": 285.2046, "MEAN_ANOMALY": 160.4424, "EPHEMERIS_TYPE": 0, "CLASSIFICATION_TYPE": "U", "NORAD_CAT_ID": 44864, "ELEMENT_SET_NO": 999, "REV_AT_EPOCH": 4098, "BSTAR": 0, "MEAN_MOTION_DOT": -2.5e-07, "MEAN_MOTION_DDOT": 0}, "tle": {"line1": "1 44864U 19090A   25358.54552329 -.00000025  00000+0  00000+0 0  9999", "line2": "2 44864  56.4026  68.5704 0018401 285.2046 160.4424  1.86231537 40980"}}, "geometry": {"type": "Point", "coordinates": [-117.90667080915284, 9.582661109003832]}}, {"type": "Feature", "properties": {"norad_id": 44865, "name": "BEIDOU-3 M20 (C42)", "group": "gnss", "lat": -54.62168335251831, "lon": -42.2198416605824, "alt_km": 21500.32449349707, "timestamp": "2025-12-26T06:43:29.754739+00:00", "meta": {"OBJECT_NAME": "BEIDOU-3 M20 (C42)", "OBJECT_ID": "2019-090B", "EPOCH": "2025-12-24T09:14:17.322144", "MEAN_MOTION": 1.86231611, "ECCENTRICITY": 0.00155264, "INCLINATION": 56.4041, "RA_OF_ASC_NODE": 68.61, "ARG_OF_PERICENTER": 297.3537, "MEAN_ANOMALY": 130.233, "EPHEMERIS_TYPE": 0, "CLASSIFICATION_TYPE": "U", "NORAD_CAT_ID": 44865, "ELEMENT_SET_NO": 999, "REV_AT_EPOCH": 4096, "BSTAR": 0, "MEAN_MOTION_DOT": -2.4e-07, "MEAN_MOTION_DDOT": 0}, "tle": {"line1": "1 44865U 19090B   25358.38492271 -.00000024  00000+0  00000+0 0  9990", "line2": "2 44865  56.4041  68.6100 0015526 297.3537 130.2330  1.86231611 40965"}}, "geometry": {"type": "Point", "coordinates": [-42.2198416605824, -54.62168335251831]}}, {"type": "Feature", "properties": {"norad_id": 45344, "name": "BEIDOU-3 G2 (C60)", "group": "gnss", "lat": -1.998673878868088, "lon": -84.0866038120272, "alt_km": 35777.263166093035, "timestamp": "2025-12-26T06:43:29.754751+00:00", "meta": {"OBJECT_NAME": "BEIDOU-3 G2 (C60)", "OBJECT_ID": "2020-017A", "EPOCH": "2025-12-25T19:22:19.403328", "MEAN_MOTION": 1.00272136, "ECCENTRICITY": 0.00021357, "INCLINATION": 2.5199, "RA_OF_ASC_NODE": 44.1352, "ARG_OF_PERICENTER": 237.2485, "MEAN_ANOMALY": 183.8049, "EPHEMERIS_TYPE": 0, "CLASSIFICATION_TYPE": "U", "NORAD_CAT_ID": 45344, "ELEMENT_SET_NO": 999, "REV_AT_EPOCH": 2152, "BSTAR": 0, "MEAN_MOTION_DOT": -1.2e-06, "MEAN_MOTION_DDOT": 0}, "tle": {"line1": "1 45344U 20017A   25359.80716902 -.00000120  00000+0  00000+0 0  9999", "line2": "2 45344   2.5199  44.1352 0002135 237.2485 183.8049  1.00272136 21524"}}, "geometry": {"type": "Point", "coordinates": [-84.0866038120272, -1.998673878868088]}}, {"type": "Feature", "properties": {"norad_id": 45358, "name": "COSMOS 2545 (760)", "group": "gnss", "lat": 15.356483097812006, "lon": 130.94204625782032, "alt_km": 19127.226285682376, "timestamp": "2025-12-26T06:43:29.754769+00:00", "meta": {"OBJECT_NAME": "COSMOS 2545 (760)", "OBJECT_ID": "2020-018A", "EPOCH": "2025-12-25T03:05:50.090208", "MEAN_MOTION": 2.13102661, "ECCENTRICITY": 0.00112965, "INCLINATION": 64.4622, "RA_OF_ASC_NODE": 318.5356, "ARG_OF_PERICENTER": 250.6844, "MEAN_ANOMALY": 109.1968, "EPHEMERIS_TYPE": 0, "CLASSIFICATION_TYPE": "U", "NORAD_CAT_ID": 45358, "ELEMENT_SET_NO": 999, "REV_AT_EPOCH": 4495, "BSTAR": 0, "MEAN_MOTION_DOT": -3.4e-07, "MEAN_MOTION_DDOT": 0}, "tle": {"line1": "1 45358U 20018A   25359.12905197 -.00000034  00000+0  00000+0 0  9990", "line2": "2 45358  64.4622 318.5356 0011296 250.6844 109.1968  2.13102661 44958"}}, "geometry": {"type": "Point", "coordinates": [130.94204625782032, 15.356483097812006]}}]}